#cP2005  4 14 00 00 00.00000000    2880 *POS* WGS84 FIT DLR*
## 1318 345600.00000000    30.00000000 53474 0.0000000000000
+    1   L06  0  0  0  0  0  0  0  0  0  0  0  0  0  0  0  0
+          0  0  0  0  0  0  0  0  0  0  0  0  0  0  0  0  0
+          0  0  0  0  0  0  0  0  0  0  0  0  0  0  0  0  0
+          0  0  0  0  0  0  0  0  0  0  0  0  0  0  0  0  0
+          0  0  0  0  0  0  0  0  0  0  0  0  0  0  0  0  0
++         0  0  0  0  0  0  0  0  0  0  0  0  0  0  0  0  0
++         0  0  0  0  0  0  0  0  0  0  0  0  0  0  0  0  0
++         0  0  0  0  0  0  0  0  0  0  0  0  0  0  0  0  0
++         0  0  0  0  0  0  0  0  0  0  0  0  0  0  0  0  0
++         0  0  0  0  0  0  0  0  0  0  0  0  0  0  0  0  0
%c cc cc ccc ccc cccc cccc cccc cccc ccccc ccccc ccccc ccccc
%c cc cc ccc ccc cccc cccc cccc cccc ccccc ccccc ccccc ccccc
%f   .0000000   .000000000   .00000000000   .000000000000000
%f   .0000000   .000000000   .00000000000   .000000000000000
%i    0    0    0    0      0      0      0      0         0
%i    0    0    0    0      0      0      0      0         0
/* NOTE: CCCCCCCCCCCCCCCCCCCCCCCCCCCCCCCCCCCCCCCCCCCCCCCCCCC
/* CCCCCCCCCCCCCCCCCCCCCCCCCCCCCCCCCCCCCCCCCCCCCCCCCCCCCCCCC
/* CCCCCCCCCCCCCCCCCCCCCCCCCCCCCCCCCCCCCCCCCCCCCCCCCCCCCCCCC
/* CCCCCCCCCCCCCCCCCCCCCCCCCCCCCCCCCCCCCCCCCCCCCCCCCCCCCCCCC
*  2005 04 14 01 33 00.00000000
PL06   1017.432336   -742.211900  -6627.357504 999999.000000
*  2005 04 14 01 33 30.00000000
PL06   1226.467517   -825.459743  -6581.920499 999999.000000
*  2005 04 14 01 34 00.00000000
PL06   1433.719261   -908.662940  -6528.812363 999999.000000
*  2005 04 14 01 34 30.00000000
PL06   1638.947891   -991.716728  -6468.093956 999999.000000
*  2005 04 14 01 35 00.00000000
PL06   1841.916438  -1074.515430  -6399.834929 999999.000000
*  2005 04 14 01 35 30.00000000
PL06   2042.390922  -1156.952596  -6324.113628 999999.000000
*  2005 04 14 01 36 00.00000000
PL06   2240.140608  -1238.921131  -6241.017004 999999.000000
*  2005 04 14 01 36 30.00000000
PL06   2434.938260  -1320.313417  -6150.640529 999999.000000
*  2005 04 14 01 37 00.00000000
PL06   2626.560400  -1401.021459  -6053.088107 999999.000000
*  2005 04 14 01 37 30.00000000
PL06   2814.787562  -1480.937014  -5948.471967 999999.000000
*  2005 04 14 01 38 00.00000000
PL06   2999.404541  -1559.951737  -5836.912556 999999.000000
*  2005 04 14 01 38 30.00000000
PL06   3180.200650  -1637.957330  -5718.538424 999999.000000
*  2005 04 14 01 39 00.00000000
PL06   3356.969968  -1714.845685  -5593.486092 999999.000000
*  2005 04 14 01 39 30.00000000
PL06   3529.511602  -1790.509034  -5461.899893 999999.000000
*  2005 04 14 01 40 00.00000000
PL06   3697.629899  -1864.840097  -5323.931795 999999.000000
*  2005 04 14 01 40 30.00000000
PL06   3861.134647  -1937.732227  -5179.741248 999999.000000
*  2005 04 14 01 41 00.00000000
PL06   4019.841315  -2009.079572  -5029.495037 999999.000000
*  2005 04 14 01 41 30.00000000
PL06   4173.571272  -2078.777217  -4873.367087 999999.000000
*  2005 04 14 01 42 00.00000000
PL06   4322.151992  -2146.721341  -4711.538270 999999.000000
*  2005 04 14 01 42 30.00000000
PL06   4465.417248  -2212.809363  -4544.196217 999999.000000
*  2005 04 14 01 43 00.00000000
PL06   4603.207313  -2276.940091  -4371.535111 999999.000000
*  2005 04 14 01 43 30.00000000
PL06   4735.369152  -2339.013876  -4193.755475 999999.000000
*  2005 04 14 01 44 00.00000000
PL06   4861.756598  -2398.932758  -4011.063952 999999.000000
*  2005 04 14 01 44 30.00000000
PL06   4982.230536  -2456.600618  -3823.673075 999999.000000
*  2005 04 14 01 45 00.00000000
PL06   5096.659068  -2511.923329  -3631.801025 999999.000000
*  2005 04 14 01 45 30.00000000
PL06   5204.917671  -2564.808902  -3435.671385 999999.000000
*  2005 04 14 01 46 00.00000000
PL06   5306.889351  -2615.167626  -3235.512881 999999.000000
*  2005 04 14 01 46 30.00000000
PL06   5402.464776  -2662.912216  -3031.559119 999999.000000
*  2005 04 14 01 47 00.00000000
PL06   5491.542415  -2707.957952  -2824.048311 999999.000000
*  2005 04 14 01 47 30.00000000
PL06   5574.028651  -2750.222823  -2613.223001 999999.000000
*  2005 04 14 01 48 00.00000000
PL06   5649.837890  -2789.627663  -2399.329772 999999.000000
*  2005 04 14 01 48 30.00000000
PL06   5718.892655  -2826.096277  -2182.618966 999999.000000
*  2005 04 14 01 49 00.00000000
PL06   5781.123680  -2859.555576  -1963.344394 999999.000000
*  2005 04 14 01 49 30.00000000
PL06   5836.469994  -2889.935699  -1741.763033 999999.000000
*  2005 04 14 01 50 00.00000000
PL06   5884.878994  -2917.170140  -1518.134726 999999.000000
*  2005 04 14 01 50 30.00000000
PL06   5926.306501  -2941.195875  -1292.721870 999999.000000
*  2005 04 14 01 51 00.00000000
PL06   5960.716813  -2961.953477  -1065.789091 999999.000000
*  2005 04 14 01 51 30.00000000
PL06   5988.082733  -2979.387226   -837.602933 999999.000000
*  2005 04 14 01 52 00.00000000
PL06   6008.385593  -2993.445217   -608.431532 999999.000000
*  2005 04 14 01 52 30.00000000
PL06   6021.615266  -3004.079458   -378.544300 999999.000000
*  2005 04 14 01 53 00.00000000
PL06   6027.770167  -3011.245974   -148.211596 999999.000000
*  2005 04 14 01 53 30.00000000
PL06   6026.857250  -3014.904894     82.295592 999999.000000
*  2005 04 14 01 54 00.00000000
PL06   6018.891991  -3015.020543    312.705972 999999.000000
*  2005 04 14 01 54 30.00000000
PL06   6003.898376  -3011.561533    542.748287 999999.000000
*  2005 04 14 01 55 00.00000000
PL06   5981.908851  -3004.500829    772.151660 999999.000000
*  2005 04 14 01 55 30.00000000
PL06   5952.964261  -2993.815819   1000.645923 999999.000000
*  2005 04 14 01 56 00.00000000
PL06   5917.113782  -2979.488381   1227.961958 999999.000000
*  2005 04 14 01 56 30.00000000
PL06   5874.414833  -2961.504933   1453.832021 999999.000000
*  2005 04 14 01 57 00.00000000
PL06   5824.932973  -2939.856484   1677.990062 999999.000000
*  2005 04 14 01 57 30.00000000
PL06   5768.741816  -2914.538679   1900.172033 999999.000000
*  2005 04 14 01 58 00.00000000
PL06   5705.922926  -2885.551848   2120.116202 999999.000000
*  2005 04 14 01 58 30.00000000
PL06   5636.565716  -2852.901050   2337.563485 999999.000000
*  2005 04 14 01 59 00.00000000
PL06   5560.767314  -2816.596093   2552.257782 999999.000000
*  2005 04 14 01 59 30.00000000
PL06   5478.632406  -2776.651532   2763.946293 999999.000000
*  2005 04 14 02 00 00.00000000
PL06   5390.273071  -2733.086685   2972.379806 999999.000000
*  2005 04 14 02 00 30.00000000
PL06   5295.808629  -2685.925637   3177.312986 999999.000000
*  2005 04 14 02 01 00.00000000
PL06   5195.365480  -2635.197252   3378.504671 999999.000000
*  2005 04 14 02 01 30.00000000
PL06   5089.076926  -2580.935155   3575.718163 999999.000000
*  2005 04 14 02 02 00.00000000
PL06   4977.082985  -2523.177720   3768.721505 999999.000000
*  2005 04 14 02 02 30.00000000
PL06   4859.530198  -2461.968043   3957.287758 999999.000000
*  2005 04 14 02 03 00.00000000
PL06   4736.571438  -2397.353924   4141.195259 999999.000000
*  2005 04 14 02 03 30.00000000
PL06   4608.365713  -2329.387835   4320.227887 999999.000000
*  2005 04 14 02 04 00.00000000
PL06   4475.077951  -2258.126890   4494.175339 999999.000000
*  2005 04 14 02 04 30.00000000
PL06   4336.878768  -2183.632786   4662.833377 999999.000000
*  2005 04 14 02 05 00.00000000
PL06   4193.944236  -2105.971755   4826.004063 999999.000000
*  2005 04 14 02 05 30.00000000
PL06   4046.455650  -2025.214507   4983.495981 999999.000000
*  2005 04 14 02 06 00.00000000
PL06   3894.599287  -1941.436168   5135.124471 999999.000000
*  2005 04 14 02 06 30.00000000
PL06   3738.566159  -1854.716204   5280.711835 999999.000000
*  2005 04 14 02 07 00.00000000
PL06   3578.551761  -1765.138343   5420.087539 999999.000000
*  2005 04 14 02 07 30.00000000
PL06   3414.755813  -1672.790485   5553.088399 999999.000000
*  2005 04 14 02 08 00.00000000
PL06   3247.382007  -1577.764622   5679.558761 999999.000000
*  2005 04 14 02 08 30.00000000
PL06   3076.637754  -1480.156740   5799.350672 999999.000000
*  2005 04 14 02 09 00.00000000
PL06   2902.733918  -1380.066725   5912.324047 999999.000000
*  2005 04 14 02 09 30.00000000
PL06   2725.884563  -1277.598257   6018.346829 999999.000000
*  2005 04 14 02 10 00.00000000
PL06   2546.306679  -1172.858703   6117.295141 999999.000000
*  2005 04 14 02 10 30.00000000
PL06   2364.219909  -1065.959015   6209.053423 999999.000000
*  2005 04 14 02 11 00.00000000
PL06   2179.846280   -957.013611   6293.514568 999999.000000
*  2005 04 14 02 11 30.00000000
PL06   1993.409918   -846.140240   6370.580031 999999.000000
*  2005 04 14 02 12 00.00000000
PL06   1805.136786   -733.459855   6440.159944 999999.000000
*  2005 04 14 02 12 30.00000000
PL06   1615.254396   -619.096478   6502.173210 999999.000000
*  2005 04 14 02 13 00.00000000
PL06   1423.991537   -503.177071   6556.547600 999999.000000
*  2005 04 14 02 13 30.00000000
PL06   1231.577985   -385.831374   6603.219821 999999.000000
*  2005 04 14 02 14 00.00000000
PL06   1038.244222   -267.191768   6642.135559 999999.000000
*  2005 04 14 02 14 30.00000000
PL06    844.221189   -147.393135   6673.249532 999999.000000
*  2005 04 14 02 15 00.00000000
PL06    649.740012    -26.572711   6696.525564 999999.000000
*  2005 04 14 02 15 30.00000000
PL06    455.031715     95.130076   6711.936629 999999.000000
*  2005 04 14 02 16 00.00000000
PL06    260.326947    217.573770   6719.464880 999999.000000
*  2005 04 14 02 16 30.00000000
PL06     65.855710    340.615054   6719.101659 999999.000000
*  2005 04 14 02 17 00.00000000
PL06   -128.152909    464.108913   6710.847506 999999.000000
*  2005 04 14 02 17 30.00000000
PL06   -321.471010    587.908804   6694.712159 999999.000000
*  2005 04 14 02 18 00.00000000
PL06   -513.872140    711.866832   6670.714536 999999.000000
*  2005 04 14 02 18 30.00000000
PL06   -705.131561    835.833924   6638.882722 999999.000000
*  2005 04 14 02 19 00.00000000
PL06   -895.026510    959.660004   6599.253929 999999.000000
EOF
